CCSDS_OMM_VERS = 2.0
CREATION_DATE  = 
ORIGINATOR     = 

OBJECT_NAME    = RSP-03
OBJECT_ID      = 1998-067XL
CENTER_NAME    = EARTH
REF_FRAME      = TEME
TIME_SYSTEM    = UTC
MEAN_ELEMENT_THEORY = SGP/SGP4

EPOCH          = 2026-02-13T18:10:09.145920
MEAN_MOTION    = 16.16116239
ECCENTRICITY   = .00098651
INCLINATION    = 51.6110
RA_OF_ASC_NODE = 168.6576
ARG_OF_PERICENTER = 331.1827
MEAN_ANOMALY   = 28.8644

EPHEMERIS_TYPE = 0
CLASSIFICATION_TYPE = U
NORAD_CAT_ID   = 65732
ELEMENT_SET_NO = 999
REV_AT_EPOCH   = 2314
BSTAR          = .13904352E-2
MEAN_MOTION_DOT = .1941312E-1
MEAN_MOTION_DDOT = .38480166E-2

CCSDS_OMM_VERS = 2.0
CREATION_DATE  = 
ORIGINATOR     = 

OBJECT_NAME    = YOTSUBA-KULOVER
OBJECT_ID      = 1998-067XN
CENTER_NAME    = EARTH
REF_FRAME      = TEME
TIME_SYSTEM    = UTC
MEAN_ELEMENT_THEORY = SGP/SGP4

EPOCH          = 2026-02-13T22:14:54.886560
MEAN_MOTION    = 15.72322960
ECCENTRICITY   = .00043746
INCLINATION    = 51.6246
RA_OF_ASC_NODE = 179.7162
ARG_OF_PERICENTER = 296.4697
MEAN_ANOMALY   = 63.5853

EPHEMERIS_TYPE = 0
CLASSIFICATION_TYPE = U
NORAD_CAT_ID   = 65941
ELEMENT_SET_NO = 999
REV_AT_EPOCH   = 1975
BSTAR          = .98478441E-3
MEAN_MOTION_DOT = .134966E-2
MEAN_MOTION_DDOT = 0

CCSDS_OMM_VERS = 2.0
CREATION_DATE  = 
ORIGINATOR     = 

OBJECT_NAME    = BOTAN
OBJECT_ID      = 1998-067XP
CENTER_NAME    = EARTH
REF_FRAME      = TEME
TIME_SYSTEM    = UTC
MEAN_ELEMENT_THEORY = SGP/SGP4

EPOCH          = 2026-02-13T15:03:57.872160
MEAN_MOTION    = 15.88230459
ECCENTRICITY   = .00079266
INCLINATION    = 51.6162
RA_OF_ASC_NODE = 176.9072
ARG_OF_PERICENTER = 319.0069
MEAN_ANOMALY   = 41.0339

EPHEMERIS_TYPE = 0
CLASSIFICATION_TYPE = U
NORAD_CAT_ID   = 65942
ELEMENT_SET_NO = 999
REV_AT_EPOCH   = 1976
BSTAR          = .14110372E-2
MEAN_MOTION_DOT = .415996E-2
MEAN_MOTION_DDOT = 0

CCSDS_OMM_VERS = 2.0
CREATION_DATE  = 
ORIGINATOR     = 

OBJECT_NAME    = E-KAGAKU-1
OBJECT_ID      = 1998-067XQ
CENTER_NAME    = EARTH
REF_FRAME      = TEME
TIME_SYSTEM    = UTC
MEAN_ELEMENT_THEORY = SGP/SGP4

EPOCH          = 2026-02-13T14:38:57.410880
MEAN_MOTION    = 15.72107679
ECCENTRICITY   = .00041847
INCLINATION    = 51.6267
RA_OF_ASC_NODE = 181.3641
ARG_OF_PERICENTER = 310.1577
MEAN_ANOMALY   = 49.9054

EPHEMERIS_TYPE = 0
CLASSIFICATION_TYPE = U
NORAD_CAT_ID   = 65943
ELEMENT_SET_NO = 999
REV_AT_EPOCH   = 1970
BSTAR          = .93827869E-3
MEAN_MOTION_DOT = .127268E-2
MEAN_MOTION_DDOT = 0

CCSDS_OMM_VERS = 2.0
CREATION_DATE  = 
ORIGINATOR     = 

OBJECT_NAME    = HRC MONOBLOCK CAMERA
OBJECT_ID      = 1998-067XR
CENTER_NAME    = EARTH
REF_FRAME      = TEME
TIME_SYSTEM    = UTC
MEAN_ELEMENT_THEORY = SGP/SGP4

EPOCH          = 2026-02-13T16:35:25.670976
MEAN_MOTION    = 15.59695574
ECCENTRICITY   = .00016897
INCLINATION    = 51.6269
RA_OF_ASC_NODE = 186.4081
ARG_OF_PERICENTER = 7.0564
MEAN_ANOMALY   = 353.0452

EPHEMERIS_TYPE = 0
CLASSIFICATION_TYPE = U
NORAD_CAT_ID   = 66052
ELEMENT_SET_NO = 999
REV_AT_EPOCH   = 1864
BSTAR          = .54837914E-3
MEAN_MOTION_DOT = .44413E-3
MEAN_MOTION_DDOT = 0

CCSDS_OMM_VERS = 2.0
CREATION_DATE  = 
ORIGINATOR     = 

OBJECT_NAME    = HTV-X1
OBJECT_ID      = 2025-241A
CENTER_NAME    = EARTH
REF_FRAME      = TEME
TIME_SYSTEM    = UTC
MEAN_ELEMENT_THEORY = SGP/SGP4

EPOCH          = 2026-02-13T16:45:23.789664
MEAN_MOTION    = 15.48584309
ECCENTRICITY   = .00110499
INCLINATION    = 51.6306
RA_OF_ASC_NODE = 190.9508
ARG_OF_PERICENTER = 94.7958
MEAN_ANOMALY   = 265.4292

EPHEMERIS_TYPE = 0
CLASSIFICATION_TYPE = U
NORAD_CAT_ID   = 66174
ELEMENT_SET_NO = 999
REV_AT_EPOCH   = 51
BSTAR          = .15142451E-3
MEAN_MOTION_DOT = .7793E-4
MEAN_MOTION_DDOT = 0

CCSDS_OMM_VERS = 2.0
CREATION_DATE  = 
ORIGINATOR     = 

OBJECT_NAME    = SZ-21 MODULE
OBJECT_ID      = 2025-246C
CENTER_NAME    = EARTH
REF_FRAME      = TEME
TIME_SYSTEM    = UTC
MEAN_ELEMENT_THEORY = SGP/SGP4

EPOCH          = 2026-02-13T05:26:33.249408
MEAN_MOTION    = 15.66676295
ECCENTRICITY   = .0002368
INCLINATION    = 41.4764
RA_OF_ASC_NODE = 353.7289
ARG_OF_PERICENTER = 294.7377
MEAN_ANOMALY   = 65.3218

EPHEMERIS_TYPE = 0
CLASSIFICATION_TYPE = U
NORAD_CAT_ID   = 66515
ELEMENT_SET_NO = 999
REV_AT_EPOCH   = 1423
BSTAR          = .32518E-3
MEAN_MOTION_DOT = .34969E-3
MEAN_MOTION_DDOT = 0

CCSDS_OMM_VERS = 2.0
CREATION_DATE  = 
ORIGINATOR     = 

OBJECT_NAME    = SHENZHOU-22
OBJECT_ID      = 2025-272A
CENTER_NAME    = EARTH
REF_FRAME      = TEME
TIME_SYSTEM    = UTC
MEAN_ELEMENT_THEORY = SGP/SGP4

EPOCH          = 2026-02-13T13:58:21.569376
MEAN_MOTION    = 15.59570502
ECCENTRICITY   = .00041389
INCLINATION    = 41.4682
RA_OF_ASC_NODE = 354.7278
ARG_OF_PERICENTER = 82.4039
MEAN_ANOMALY   = 277.7269

EPHEMERIS_TYPE = 0
CLASSIFICATION_TYPE = U
NORAD_CAT_ID   = 66645
ELEMENT_SET_NO = 999
REV_AT_EPOCH   = 26764
BSTAR          = .18872677E-3
MEAN_MOTION_DOT = .15139E-3
MEAN_MOTION_DDOT = 0

CCSDS_OMM_VERS = 2.0
CREATION_DATE  = 
ORIGINATOR     = 

OBJECT_NAME    = SOYUZ-MS 28
OBJECT_ID      = 2025-275A
CENTER_NAME    = EARTH
REF_FRAME      = TEME
TIME_SYSTEM    = UTC
MEAN_ELEMENT_THEORY = SGP/SGP4

EPOCH          = 2026-02-13T16:45:23.789664
MEAN_MOTION    = 15.48584309
ECCENTRICITY   = .00110499
INCLINATION    = 51.6306
RA_OF_ASC_NODE = 190.9508
ARG_OF_PERICENTER = 94.7958
MEAN_ANOMALY   = 265.4292

EPHEMERIS_TYPE = 0
CLASSIFICATION_TYPE = U
NORAD_CAT_ID   = 66664
ELEMENT_SET_NO = 999
REV_AT_EPOCH   = 128
BSTAR          = .15142451E-3
MEAN_MOTION_DOT = .7793E-4
MEAN_MOTION_DDOT = 0

CCSDS_OMM_VERS = 2.0
CREATION_DATE  = 
ORIGINATOR     = 

OBJECT_NAME    = DUPLEX
OBJECT_ID      = 1998-067XS
CENTER_NAME    = EARTH
REF_FRAME      = TEME
TIME_SYSTEM    = UTC
MEAN_ELEMENT_THEORY = SGP/SGP4

EPOCH          = 2026-02-13T22:36:16.359264
MEAN_MOTION    = 15.54550697
ECCENTRICITY   = .00013553
INCLINATION    = 51.6281
RA_OF_ASC_NODE = 188.0819
ARG_OF_PERICENTER = 76.7932
MEAN_ANOMALY   = 283.3210

EPHEMERIS_TYPE = 0
CLASSIFICATION_TYPE = U
NORAD_CAT_ID   = 66906
ELEMENT_SET_NO = 999
REV_AT_EPOCH   = 1143
BSTAR          = .51453997E-3
MEAN_MOTION_DOT = .34258E-3
MEAN_MOTION_DDOT = 0

CCSDS_OMM_VERS = 2.0
CREATION_DATE  = 
ORIGINATOR     = 

OBJECT_NAME    = ISS OBJECT XT
OBJECT_ID      = 1998-067XT
CENTER_NAME    = EARTH
REF_FRAME      = TEME
TIME_SYSTEM    = UTC
MEAN_ELEMENT_THEORY = SGP/SGP4

EPOCH          = 2026-02-13T15:32:46.009536
MEAN_MOTION    = 15.62747982
ECCENTRICITY   = .00020788
INCLINATION    = 51.6268
RA_OF_ASC_NODE = 187.6156
ARG_OF_PERICENTER = 295.0599
MEAN_ANOMALY   = 65.0179

EPHEMERIS_TYPE = 0
CLASSIFICATION_TYPE = U
NORAD_CAT_ID   = 66907
ELEMENT_SET_NO = 999
REV_AT_EPOCH   = 1141
BSTAR          = .11358944E-2
MEAN_MOTION_DOT = .104949E-2
MEAN_MOTION_DDOT = 0

CCSDS_OMM_VERS = 2.0
CREATION_DATE  = 
ORIGINATOR     = 

OBJECT_NAME    = ISS OBJECT XU
OBJECT_ID      = 1998-067XU
CENTER_NAME    = EARTH
REF_FRAME      = TEME
TIME_SYSTEM    = UTC
MEAN_ELEMENT_THEORY = SGP/SGP4

EPOCH          = 2026-02-13T15:31:47.309376
MEAN_MOTION    = 15.62783685
ECCENTRICITY   = .00019369
INCLINATION    = 51.6260
RA_OF_ASC_NODE = 187.6082
ARG_OF_PERICENTER = 299.6563
MEAN_ANOMALY   = 60.4238

EPHEMERIS_TYPE = 0
CLASSIFICATION_TYPE = U
NORAD_CAT_ID   = 66908
ELEMENT_SET_NO = 999
REV_AT_EPOCH   = 1141
BSTAR          = .1133298E-2
MEAN_MOTION_DOT = .104852E-2
MEAN_MOTION_DDOT = 0

