RSP-03                  
1 65732U 98067XL  26044.75705030  .01941312  38480-2  13904-2 0  9991
2 65732  51.6110 168.6576 0009865 331.1827  28.8644 16.16116239 23149
YOTSUBA-KULOVER         
1 65941U 98067XN  26044.92702415  .00134966  00000+0  98478-3 0  9998
2 65941  51.6246 179.7162 0004374 296.4697  63.5853 15.72322960 19754
BOTAN                   
1 65942U 98067XP  26044.62775315  .00415996  00000+0  14110-2 0  9990
2 65942  51.6162 176.9072 0007926 319.0069  41.0339 15.88230459 19761
E-KAGAKU-1              
1 65943U 98067XQ  26044.61038670  .00127268  00000+0  93828-3 0  9992
2 65943  51.6267 181.3641 0004184 310.1577  49.9054 15.72107679 19704
HRC MONOBLOCK CAMERA    
1 66052U 98067XR  26044.69126934  .00044413  00000+0  54838-3 0  9991
2 66052  51.6269 186.4081 0001689   7.0564 353.0452 15.59695574 18641
HTV-X1                  
1 66174U 25241A   26044.69819201  .00007793  00000+0  15142-3 0  9991
2 66174  51.6306 190.9508 0011049  94.7958 265.4292 15.48584309   519
SZ-21 MODULE            
1 66515U 25246C   26044.22677372  .00034969  00000+0  32518-3 0  9996
2 66515  41.4764 353.7289 0002368 294.7377  65.3218 15.66676295 14234
SHENZHOU-22             
1 66645U 25272A   26044.58219409  .00015139  00000+0  18873-3 0  9997
2 66645  41.4682 354.7278 0004138  82.4039 277.7269 15.59570502267646
SOYUZ-MS 28             
1 66664U 25275A   26044.69819201  .00007793  00000+0  15142-3 0  9992
2 66664  51.6306 190.9508 0011049  94.7958 265.4292 15.48584309  1288
DUPLEX                  
1 66906U 98067XS  26044.94185601  .00034258  00000+0  51454-3 0  9990
2 66906  51.6281 188.0819 0001355  76.7932 283.3210 15.54550697 11430
ISS OBJECT XT           
1 66907U 98067XT  26044.64775474  .00104949  00000+0  11359-2 0  9995
2 66907  51.6268 187.6156 0002078 295.0599  65.0179 15.62747982 11414
ISS OBJECT XU           
1 66908U 98067XU  26044.64707534  .00104852  00000+0  11333-2 0  9993
2 66908  51.6260 187.6082 0001936 299.6563  60.4238 15.62783685 11413
